[
    {
        "Altitude(m)": 604234.588988423,
        "Argument of Periapsis(deg)": 0.0,
        "Eccentricity": 0.0,
        "Inclination(deg)": 60.0,
        "Latitude(deg)": 14.117120334073494,
        "Longitude(deg)": -93.27266600565618,
        "Mean Anomaly(deg)": 163.63639999999998,
        "RAAN(deg)": 195.00000000000003,
        "Satellite Name": "Test1 868",
        "Satellite Number": 868,
        "Semi-Major Axis(m)": 6980739.136638005,
        "Time(s)": 0
    },
    {
        "Altitude(m)": 604223.4182424486,
        "Argument of Periapsis(deg)": 0.00010418945913296404,
        "Eccentricity": 0.0,
        "Inclination(deg)": 60.0,
        "Latitude(deg)": 13.582256563873461,
        "Longitude(deg)": -92.98575722997474,
        "Mean Anomaly(deg)": 164.25650614546183,
        "RAAN(deg)": 194.99957995086024,
        "Satellite Name": "Test1 868",
        "Satellite Number": 868,
        "Semi-Major Axis(m)": 6980739.136638005,
        "Time(s)": 10
    }
]